{"fetched_at":"2026-06-13T17:21:47Z","count":1672,"tles":[{"name":"ARIANE 5 R/B","line1":"1 28499U 04049H   26163.28031602  .00000666  00000+0  79512-4 0  9994","line2":"2 28499  98.2717 335.3439 0084807  45.1959 315.6109 14.85442988159832","category":"Other"},{"name":"JY1SAT (JO-97)","line1":"1 43803U 18099AX  26163.13681758  .00015570  00000+0  48284-3 0  9998","line2":"2 43803  97.4133 225.9535 0004126 287.1205  72.9585 15.33493153412859","category":"Other"},{"name":"OKEAN-3","line1":"1 21397U 91039A   26163.28608678  .00002155  00000+0  14845-3 0  9994","line2":"2 21397  82.5159 245.1336 0014450  15.9806 344.1874 15.05302522879269","category":"Other"},{"name":"SL-16 R/B","line1":"1 23705U 95058B   26163.82182263  .00000177  00000+0  11490-3 0  9996","line2":"2 23705  71.0216 340.5240 0013552 326.4608  33.5656 14.15506004581311","category":"Other"},{"name":"COSMOS 1743","line1":"1 16719U 86034A   26162.97329097  .00046212  00000+0  44237-3 0  9995","line2":"2 16719  82.5272 334.2751 0003761 295.8467  64.2405 15.66480460194976","category":"Other"},{"name":"COSMOS 1953","line1":"1 19210U 88050A   26163.76749979  .00008067  00000+0  27685-3 0  9991","line2":"2 19210  82.5086  62.4911 0011823 139.8947 220.3168 15.29919077 52316","category":"Other"},{"name":"ACS3","line1":"1 59588U 24077B   26163.75494672  .00005776  00000+0  43259-2 0  9996","line2":"2 59588  97.1677  83.5323 0063270  67.6483 293.1372 13.93861971107429","category":"Other"},{"name":"MANDRAKE 2 ABLE","line1":"1 48907U 21059AE  26163.79785819  .00022832  00000+0  34379-3 0  9992","line2":"2 48907  97.7031 353.2483 0004779  21.5330 338.6123 15.54820205276447","category":"Other"},{"name":"TESS","line1":"1 43435U 18038A   26047.08847789 -.00000920  00000+0  00000+0 0  9999","line2":"2 43435  56.7768  39.9399 4576478  74.8293   9.7062  0.07314938  1769","category":"Other"},{"name":"ZY-1 02E","line1":"1 50465U 21131A   26163.82624046 -.00000037  00000+0  19497-5 0  9993","line2":"2 50465  98.4434 241.0077 0001858 105.9980 254.1410 14.35395290233791","category":"Other"},{"name":"SL-14 R/B","line1":"1 16882U 86055B   26163.17191872  .00000385  00000+0  41395-4 0  9994","line2":"2 16882  82.5208  37.8484 0019512  23.9417  93.8076 14.85720016133396","category":"Other"},{"name":"SL-16 R/B","line1":"1 22220U 92076B   26163.87192803 -.00000054  00000+0 -29069-5 0  9999","line2":"2 22220  71.0003 347.8720 0014574 304.2874 154.4667 14.16871128735312","category":"Other"},{"name":"GRACE-FO 1","line1":"1 43476U 18047A   26163.86711722  .00003866  00000+0  10155-3 0  9993","line2":"2 43476  88.9922 198.5482 0013478 119.7124 240.5475 15.38233653449136","category":"Other"},{"name":"FLOCK 4E'-1","line1":"1 46813U 20077A   23302.14587811  .00276166  00000+0  24305-2 0  9996","line2":"2 46813  97.3442  10.8172 0003117  36.0675 324.0796 15.67905174166987","category":"Other"},{"name":"ICEYE-X16","line1":"1 51008U 22002AA  23362.42856112  .00031313  00000+0  95380-3 0  9993","line2":"2 51008  97.4149  68.7598 0005633 271.0358  89.0239 15.33910810108401","category":"Other"},{"name":"CZ-2C R/B","line1":"1 37731U 11030B   26163.85197330  .00001201  00000+0  15649-3 0  9991","line2":"2 37731  97.8654 119.3164 0053372  41.8414  11.8821 14.81461475804182","category":"Other"},{"name":"SHENZHOU-20 (SZ-20)","line1":"1 63632U 25082A   26022.30237278  .00025665  00000+0  30041-3 0  9995","line2":"2 63632  41.4671 130.1396 0010483 335.9522  24.0826 15.60894095255307","category":"Other"},{"name":"GPS BIIF-7","line1":"1 40105U 14045A   26163.06754285 -.00000023  00000+0  00000+0 0  9993","line2":"2 40105  55.3500  88.6689 0033078 118.3101 242.0091  2.00557996 85971","category":"GPS"},{"name":"H-2A R/B","line1":"1 27601U 02056E   26163.82399815  .00000166  00000+0  73069-4 0  9993","line2":"2 27601  98.3311 120.6575 0069019 237.7385 179.3357 14.33820374227741","category":"Other"},{"name":"COSMO-SKYMED 3","line1":"1 33412U 08054A   26163.89348720  .00004212  00000+0  28570-3 0  9992","line2":"2 33412  97.8286  22.3937 0014432 282.9833  76.9782 15.06924122956292","category":"Other"},{"name":"OCO 2","line1":"1 40059U 14035A   26163.82929433  .00000365  00000+0  91111-4 0  9999","line2":"2 40059  98.2018 105.1887 0001492  86.2847 273.8522 14.57107976635414","category":"Other"},{"name":"SAOCOM 1A","line1":"1 43641U 18076A   26163.81533965  .00000841  00000+0  11216-3 0  9994","line2":"2 43641  97.8887 350.6281 0001602  79.8122 280.3271 14.82146619415454","category":"Other"},{"name":"EX-ALTA-2","line1":"1 56313U 98067VE  23300.59547300  .05471661  12175-4  12485-2 0  9991","line2":"2 56313  51.6099   8.8670 0007777 343.5856  16.4912 16.29176133 29217","category":"Other"},{"name":"ASTRA 1KR","line1":"1 29055U 06012A   26163.26852606  .00000134  00000+0  00000+0 0  9999","line2":"2 29055   0.4605  83.1963 0003334 352.7931 300.2703  1.00269354 45645","category":"Other"},{"name":"SL-8 R/B","line1":"1 21938U 92020B   26163.83484146  .00000040  00000+0  25534-4 0  9998","line2":"2 21938  82.9306  83.0900 0029986  34.4363  24.9871 13.75548389714219","category":"Other"},{"name":"SL-16 R/B","line1":"1 28353U 04021B   26163.84785149 -.00000276  00000+0 -11887-3 0  9996","line2":"2 28353  71.0014  32.7969 0007424 259.7206 100.3079 14.14610317136299","category":"Other"},{"name":"ONEWEB-0156","line1":"1 48052U 21025L   26163.85220865 -.00000262  00000+0 -75267-3 0  9994","line2":"2 48052  87.8960 321.0819 0001926  98.0373 262.0975 13.13470602253009","category":"Other"},{"name":"ISS OBJECT XK","line1":"1 65731U 98067XK  26068.92741747  .09293516  12338-4  75547-3 0  9992","line2":"2 65731  51.6052  44.2508 0002464 211.8886 148.1991 16.39076546 26947","category":"ISS"},{"name":"ISTSAT-1","line1":"1 60238U 24128D   26163.88561898  .00006026  00000+0  35996-3 0  9995","line2":"2 60238  61.9873 221.3419 0038591 130.3060 230.1419 15.11582474105819","category":"Other"},{"name":"SL-6 R/B(2)","line1":"1 20666U 90055D   26163.06275103  .00001362  00000+0  11129-3 0  9999","line2":"2 20666  62.7826 292.8140 0039824   4.4427 355.7018 15.03986009952383","category":"Other"},{"name":"H-2A R/B","line1":"1 38341U 12025E   26163.87543586  .00003388  00000+0  30481-3 0  9993","line2":"2 38341  98.4819 138.6655 0043928   3.4073 356.7436 14.95695097762449","category":"Other"},{"name":"GSAT-30","line1":"1 45026U 20005A   26163.13864300 -.00000149  00000+0  00000+0 0  9990","line2":"2 45026   0.0606 101.2783 0003399 342.3492 309.7435  1.00271807 23455","category":"Other"},{"name":"2024-094B","line1":"1 59806U 24094B   26163.84641329  .00006463  00000+0  33323-3 0  9997","line2":"2 59806  97.3904 234.9777 0006477 135.4453 224.7302 15.16678297114503","category":"Other"},{"name":"IRIDIUM 161","line1":"1 43478U 18047C   26163.87048525  .00000294  00000+0  81433-4 0  9990","line2":"2 43478  86.4483  90.2760 0002548  86.1294 274.0199 14.43280761424518","category":"Other"},{"name":"2024-094C","line1":"1 59807U 24094C   26163.86219122  .00006791  00000+0  34866-3 0  9999","line2":"2 59807  97.3930 235.1635 0002395 197.2053 162.9100 15.16822882114506","category":"Other"},{"name":"2024-094D","line1":"1 59808U 24094D   26163.89094781  .00006646  00000+0  34023-3 0  9999","line2":"2 59808  97.3849 234.5908 0002350 220.5761 139.5297 15.16930573114503","category":"Other"},{"name":"SL-8 R/B","line1":"1 15483U 85006B   26163.83996093  .00000199  00000+0  74733-4 0  9991","line2":"2 15483  74.0459  86.0636 0018742 333.9073  81.8882 14.37833325167706","category":"Other"},{"name":"COSMOS 1933","line1":"1 18958U 88020A   26163.22770224  .00003108  00000+0  14848-3 0  9992","line2":"2 18958  82.5116 157.3462 0002952 205.5008 154.6081 15.18683048 64573","category":"Other"},{"name":"ZHONGXING-2E","line1":"1 49062U 21071A   26163.14141634 -.00000276  00000+0  00000+0 0  9998","line2":"2 49062   0.0390 237.2888 0001713 251.7080 280.4644  1.00271814 17985","category":"Other"},{"name":"CZ-4B R/B","line1":"1 28059U 03049C   26163.28024595  .00000293  00000+0  78793-4 0  9994","line2":"2 28059  98.6896 161.9314 0047111 303.9306  55.7415 14.55097165200355","category":"Other"},{"name":"BEIDOU-3 IGSO-1","line1":"1 44204U 19023A   26157.95428288 -.00000215  00000+0  00000+0 0  9993","line2":"2 44204  58.6799  37.7569 0025434 225.6649  92.8731  1.00294886  7105","category":"GPS"},{"name":"HAIYANG-1C","line1":"1 43609U 18068A   26163.84974644 -.00000063  00000+0 -70401-5 0  9996","line2":"2 43609  98.5193 236.2202 0012029 105.6058 254.6455 14.34176993406463","category":"Other"},{"name":"CREW DRAGON 11","line1":"1 65077U 25166A   26014.88606923  .00006740  00000+0  12902-3 0  9993","line2":"2 65077  51.6333 338.3791 0007761  18.9639 341.1637 15.49293899547885","category":"Other"},{"name":"NEUDOSE","line1":"1 56315U 98067VG  23331.16635290  .08774071  12333-4  67045-3 0  9999","line2":"2 56315  51.6102 214.5024 0006245 239.2595 120.7816 16.39517407 33977","category":"Other"},{"name":"YUKONSAT","line1":"1 56316U 98067VH  23314.03801477  .05908295  12176-4  10306-2 0  9995","line2":"2 56316  51.6126 301.1501 0000576 118.0465 242.0616 16.32067439 31318","category":"Other"},{"name":"STARLINK-6038","line1":"1 56317U 23058A   26163.23691755 -.00001396  00000+0 -92773-4 0  9998","line2":"2 56317  97.3715 163.5890 0002066  89.0478 271.0987 15.05658101172071","category":"Starlink"},{"name":"SL-14 R/B","line1":"1 16792U 86046B   26163.23623746  .00000371  00000+0  39960-4 0  9991","line2":"2 16792  82.4816 350.8543 0021577 276.0160  83.8597 14.85667954140446","category":"Other"},{"name":"SL-16 R/B","line1":"1 31793U 07029B   26163.87602950  .00000264  00000+0  16168-3 0  9992","line2":"2 31793  70.9765 332.2911 0002242 259.9868 204.6843 14.14853026978833","category":"Other"},{"name":"BEIDOU-3 IGSO-2","line1":"1 44337U 19035A   26162.98574688 -.00000041  00000+0  00000+0 0  9995","line2":"2 44337  55.2458 158.9084 0039925 216.2500 359.8397  1.00267954 25613","category":"GPS"}]}